ONEWEB-0158             
1 48054U 21025N   24202.94233727  .00000299  00000+0  78451-3 0  9995
2 48054  87.8918  98.7916 0002008  78.0179 282.1175 13.13471217162236
ONEWEB-0157             
1 48055U 21025P   24203.19467444 -.00000219  00000+0 -63545-3 0  9991
2 48055  87.8917  98.7557 0001826  83.5470 276.5867 13.13469646162215
ONEWEB-0162             
1 48056U 21025Q   24203.23435814  .00000373  00000+0  98716-3 0  9990
2 48056  87.8914  98.7432 0001899  79.0928 281.0415 13.13470934162169
ONEWEB-0155             
1 48057U 21025R   24203.17881222  .00000155  00000+0  38921-3 0  9992
2 48057  87.8917  98.7653 0001605  76.4882 283.6426 13.13467784162320
ONEWEB-0149             
1 48058U 21025S   24203.19943636 -.00000211  00000+0 -61226-3 0  9992
2 48058  87.8916  98.7573 0002004  83.6241 276.5117 13.13470373162139
ONEWEB-0148             
1 48059U 21025T   24203.24070796  .00000424  00000+0  11264-2 0  9997
2 48059  87.8919  98.7605 0002066  96.2971 263.8393 13.13471710162251
ONEWEB-0160             
1 48060U 21025U   24203.18038595  .00000117  00000+0  28497-3 0  9999
2 48060  87.8920  98.7685 0002676  64.2976 295.8429 13.13471617162194
ONEWEB-0163             
1 48061U 21025V   24202.93757705  .00000329  00000+0  86658-3 0  9991
2 48061  87.8918  98.8084 0001622  83.8231 276.3082 13.13470530162289
